CCSDS_OMM_VERS = 2.0
CREATION_DATE  = 
ORIGINATOR     = 

OBJECT_NAME    = TRANSPORTER-15CM
OBJECT_ID      = 2025-276CM
CENTER_NAME    = EARTH
REF_FRAME      = TEME
TIME_SYSTEM    = UTC
MEAN_ELEMENT_THEORY = SGP/SGP4

EPOCH          = 2025-12-29T13:05:16.931904
MEAN_MOTION    = 15.17990168
ECCENTRICITY   = .00023424
INCLINATION    = 97.4398
RA_OF_ASC_NODE = 75.0294
ARG_OF_PERICENTER = 167.8048
MEAN_ANOMALY   = 192.3243

EPHEMERIS_TYPE = 0
CLASSIFICATION_TYPE = U
NORAD_CAT_ID   = 66749
ELEMENT_SET_NO = 999
REV_AT_EPOCH   = 467
BSTAR          = .94050021E-3
MEAN_MOTION_DOT = .19086E-3
MEAN_MOTION_DDOT = 0

CCSDS_OMM_VERS = 2.0
CREATION_DATE  = 
ORIGINATOR     = 

OBJECT_NAME    = TRANSPORTER-15CN
OBJECT_ID      = 2025-276CN
CENTER_NAME    = EARTH
REF_FRAME      = TEME
TIME_SYSTEM    = UTC
MEAN_ELEMENT_THEORY = SGP/SGP4

EPOCH          = 2025-12-28T22:45:39.076416
MEAN_MOTION    = 15.18107200
ECCENTRICITY   = .00025215
INCLINATION    = 97.4439
RA_OF_ASC_NODE = 74.4688
ARG_OF_PERICENTER = 139.6816
MEAN_ANOMALY   = 220.4605

EPHEMERIS_TYPE = 0
CLASSIFICATION_TYPE = U
NORAD_CAT_ID   = 66750
ELEMENT_SET_NO = 999
REV_AT_EPOCH   = 458
BSTAR          = .18374632E-2
MEAN_MOTION_DOT = .37572E-3
MEAN_MOTION_DDOT = 0

CCSDS_OMM_VERS = 2.0
CREATION_DATE  = 
ORIGINATOR     = 

OBJECT_NAME    = ICEYE-X58
OBJECT_ID      = 2025-276CP
CENTER_NAME    = EARTH
REF_FRAME      = TEME
TIME_SYSTEM    = UTC
MEAN_ELEMENT_THEORY = SGP/SGP4

EPOCH          = 2025-12-29T13:06:19.873440
MEAN_MOTION    = 15.17885964
ECCENTRICITY   = .00027679
INCLINATION    = 97.4410
RA_OF_ASC_NODE = 75.0376
ARG_OF_PERICENTER = 182.1585
MEAN_ANOMALY   = 177.9637

EPHEMERIS_TYPE = 0
CLASSIFICATION_TYPE = U
NORAD_CAT_ID   = 66751
ELEMENT_SET_NO = 999
REV_AT_EPOCH   = 467
BSTAR          = .76991966E-3
MEAN_MOTION_DOT = .15558E-3
MEAN_MOTION_DDOT = 0

CCSDS_OMM_VERS = 2.0
CREATION_DATE  = 
ORIGINATOR     = 

OBJECT_NAME    = ICEYE-X59
OBJECT_ID      = 2025-276CQ
CENTER_NAME    = EARTH
REF_FRAME      = TEME
TIME_SYSTEM    = UTC
MEAN_ELEMENT_THEORY = SGP/SGP4

EPOCH          = 2025-12-29T11:37:01.647840
MEAN_MOTION    = 15.17683597
ECCENTRICITY   = .00023057
INCLINATION    = 97.4404
RA_OF_ASC_NODE = 74.9669
ARG_OF_PERICENTER = 206.6714
MEAN_ANOMALY   = 153.4401

EPHEMERIS_TYPE = 0
CLASSIFICATION_TYPE = U
NORAD_CAT_ID   = 66752
ELEMENT_SET_NO = 999
REV_AT_EPOCH   = 466
BSTAR          = .78654417E-3
MEAN_MOTION_DOT = .15804E-3
MEAN_MOTION_DDOT = 0

CCSDS_OMM_VERS = 2.0
CREATION_DATE  = 
ORIGINATOR     = 

OBJECT_NAME    = ICEYE-X60
OBJECT_ID      = 2025-276CR
CENTER_NAME    = EARTH
REF_FRAME      = TEME
TIME_SYSTEM    = UTC
MEAN_ELEMENT_THEORY = SGP/SGP4

EPOCH          = 2025-12-29T13:18:46.654560
MEAN_MOTION    = 15.17453189
ECCENTRICITY   = .00014036
INCLINATION    = 97.4404
RA_OF_ASC_NODE = 75.0217
ARG_OF_PERICENTER = 228.1508
MEAN_ANOMALY   = 131.9606

EPHEMERIS_TYPE = 0
CLASSIFICATION_TYPE = U
NORAD_CAT_ID   = 66753
ELEMENT_SET_NO = 999
REV_AT_EPOCH   = 467
BSTAR          = .48959103E-3
MEAN_MOTION_DOT = .9739E-4
MEAN_MOTION_DDOT = 0

CCSDS_OMM_VERS = 2.0
CREATION_DATE  = 
ORIGINATOR     = 

OBJECT_NAME    = ICEYE-X61
OBJECT_ID      = 2025-276CS
CENTER_NAME    = EARTH
REF_FRAME      = TEME
TIME_SYSTEM    = UTC
MEAN_ELEMENT_THEORY = SGP/SGP4

EPOCH          = 2025-12-29T13:04:48.351648
MEAN_MOTION    = 15.17926693
ECCENTRICITY   = .00027334
INCLINATION    = 97.4403
RA_OF_ASC_NODE = 75.0333
ARG_OF_PERICENTER = 171.3433
MEAN_ANOMALY   = 188.7849

EPHEMERIS_TYPE = 0
CLASSIFICATION_TYPE = U
NORAD_CAT_ID   = 66754
ELEMENT_SET_NO = 999
REV_AT_EPOCH   = 467
BSTAR          = .72869015E-3
MEAN_MOTION_DOT = .14737E-3
MEAN_MOTION_DDOT = 0

CCSDS_OMM_VERS = 2.0
CREATION_DATE  = 
ORIGINATOR     = 

OBJECT_NAME    = ICEYE-X62
OBJECT_ID      = 2025-276CT
CENTER_NAME    = EARTH
REF_FRAME      = TEME
TIME_SYSTEM    = UTC
MEAN_ELEMENT_THEORY = SGP/SGP4

EPOCH          = 2025-12-29T10:02:21.166656
MEAN_MOTION    = 15.17709408
ECCENTRICITY   = .00015321
INCLINATION    = 97.4403
RA_OF_ASC_NODE = 74.8961
ARG_OF_PERICENTER = 194.6814
MEAN_ANOMALY   = 165.4376

EPHEMERIS_TYPE = 0
CLASSIFICATION_TYPE = U
NORAD_CAT_ID   = 66755
ELEMENT_SET_NO = 999
REV_AT_EPOCH   = 465
BSTAR          = .86785936E-3
MEAN_MOTION_DOT = .17461E-3
MEAN_MOTION_DDOT = 0

CCSDS_OMM_VERS = 2.0
CREATION_DATE  = 
ORIGINATOR     = 

OBJECT_NAME    = TRANSPORTER-15CU
OBJECT_ID      = 2025-276CU
CENTER_NAME    = EARTH
REF_FRAME      = TEME
TIME_SYSTEM    = UTC
MEAN_ELEMENT_THEORY = SGP/SGP4

EPOCH          = 2025-12-27T21:30:47.265696
MEAN_MOTION    = 15.13790352
ECCENTRICITY   = .0016107
INCLINATION    = 97.4405
RA_OF_ASC_NODE = 73.4183
ARG_OF_PERICENTER = 152.6114
MEAN_ANOMALY   = 207.5970

EPHEMERIS_TYPE = 0
CLASSIFICATION_TYPE = U
NORAD_CAT_ID   = 66756
ELEMENT_SET_NO = 999
REV_AT_EPOCH   = 442
BSTAR          = -.13429E+0
MEAN_MOTION_DOT = -.2175858E-1
MEAN_MOTION_DDOT = 0

CCSDS_OMM_VERS = 2.0
CREATION_DATE  = 
ORIGINATOR     = 

OBJECT_NAME    = TRANSPORTER-15CV
OBJECT_ID      = 2025-276CV
CENTER_NAME    = EARTH
REF_FRAME      = TEME
TIME_SYSTEM    = UTC
MEAN_ELEMENT_THEORY = SGP/SGP4

EPOCH          = 2025-12-29T09:49:54.583392
MEAN_MOTION    = 15.18178394
ECCENTRICITY   = .00021598
INCLINATION    = 97.4422
RA_OF_ASC_NODE = 74.9166
ARG_OF_PERICENTER = 141.9100
MEAN_ANOMALY   = 218.2287

EPHEMERIS_TYPE = 0
CLASSIFICATION_TYPE = U
NORAD_CAT_ID   = 66757
ELEMENT_SET_NO = 999
REV_AT_EPOCH   = 465
BSTAR          = .55295198E-3
MEAN_MOTION_DOT = .11242E-3
MEAN_MOTION_DDOT = 0

CCSDS_OMM_VERS = 2.0
CREATION_DATE  = 
ORIGINATOR     = 

OBJECT_NAME    = TRANSPORTER-15CW
OBJECT_ID      = 2025-276CW
CENTER_NAME    = EARTH
REF_FRAME      = TEME
TIME_SYSTEM    = UTC
MEAN_ELEMENT_THEORY = SGP/SGP4

EPOCH          = 2025-12-29T09:49:31.700352
MEAN_MOTION    = 15.18170381
ECCENTRICITY   = .00017481
INCLINATION    = 97.4391
RA_OF_ASC_NODE = 74.9046
ARG_OF_PERICENTER = 131.5262
MEAN_ANOMALY   = 228.6122

EPHEMERIS_TYPE = 0
CLASSIFICATION_TYPE = U
NORAD_CAT_ID   = 66758
ELEMENT_SET_NO = 999
REV_AT_EPOCH   = 465
BSTAR          = .5454647E-3
MEAN_MOTION_DOT = .11086E-3
MEAN_MOTION_DDOT = 0

CCSDS_OMM_VERS = 2.0
CREATION_DATE  = 
ORIGINATOR     = 

OBJECT_NAME    = TRANSPORTER-15CX
OBJECT_ID      = 2025-276CX
CENTER_NAME    = EARTH
REF_FRAME      = TEME
TIME_SYSTEM    = UTC
MEAN_ELEMENT_THEORY = SGP/SGP4

EPOCH          = 2025-12-29T08:11:20.028192
MEAN_MOTION    = 15.18337265
ECCENTRICITY   = .00021409
INCLINATION    = 97.4378
RA_OF_ASC_NODE = 74.8370
ARG_OF_PERICENTER = 129.0187
MEAN_ANOMALY   = 231.1238

EPHEMERIS_TYPE = 0
CLASSIFICATION_TYPE = U
NORAD_CAT_ID   = 66759
ELEMENT_SET_NO = 999
REV_AT_EPOCH   = 464
BSTAR          = .88324123E-3
MEAN_MOTION_DOT = .18097E-3
MEAN_MOTION_DDOT = 0

CCSDS_OMM_VERS = 2.0
CREATION_DATE  = 
ORIGINATOR     = 

OBJECT_NAME    = TRANSPORTER-15CY
OBJECT_ID      = 2025-276CY
CENTER_NAME    = EARTH
REF_FRAME      = TEME
TIME_SYSTEM    = UTC
MEAN_ELEMENT_THEORY = SGP/SGP4

EPOCH          = 2025-12-29T14:30:37.502208
MEAN_MOTION    = 15.18304981
ECCENTRICITY   = .00016826
INCLINATION    = 97.4396
RA_OF_ASC_NODE = 75.1042
ARG_OF_PERICENTER = 119.8602
MEAN_ANOMALY   = 240.2799

EPHEMERIS_TYPE = 0
CLASSIFICATION_TYPE = U
NORAD_CAT_ID   = 66760
ELEMENT_SET_NO = 999
REV_AT_EPOCH   = 468
BSTAR          = .14098795E-2
MEAN_MOTION_DOT = .28943E-3
MEAN_MOTION_DDOT = 0

