TRANSPORTER-15CM        
1 66749U 25276CM  25363.54533486  .00019086  00000+0  94050-3 0  9995
2 66749  97.4398  75.0294 0002342 167.8048 192.3243 15.17990168  4674
TRANSPORTER-15CN        
1 66750U 25276CN  25362.94836894  .00037572  00000+0  18375-2 0  9994
2 66750  97.4439  74.4688 0002521 139.6816 220.4605 15.18107200  4584
ICEYE-X58               
1 66751U 25276CP  25363.54606335  .00015558  00000+0  76992-3 0  9997
2 66751  97.4410  75.0376 0002767 182.1585 177.9637 15.17885964  4673
ICEYE-X59               
1 66752U 25276CQ  25363.48404685  .00015804  00000+0  78654-3 0  9996
2 66752  97.4404  74.9669 0002305 206.6714 153.4401 15.17683597  4669
ICEYE-X60               
1 66753U 25276CR  25363.55470665  .00009739  00000+0  48959-3 0  9991
2 66753  97.4404  75.0217 0001403 228.1508 131.9606 15.17453189  4670
ICEYE-X61               
1 66754U 25276CS  25363.54500407  .00014737  00000+0  72869-3 0  9990
2 66754  97.4403  75.0333 0002733 171.3433 188.7849 15.17926693  4676
ICEYE-X62               
1 66755U 25276CT  25363.41830054  .00017461  00000+0  86786-3 0  9991
2 66755  97.4403  74.8961 0001532 194.6814 165.4376 15.17709408  4656
TRANSPORTER-15CU        
1 66756U 25276CU  25361.89638039 -.02175858  00000+0 -13429+0 0  9990
2 66756  97.4405  73.4183 0016107 152.6114 207.5970 15.13790352  4428
TRANSPORTER-15CV        
1 66757U 25276CV  25363.40965953  .00011242  00000+0  55295-3 0  9991
2 66757  97.4422  74.9166 0002159 141.9100 218.2287 15.18178394  4659
TRANSPORTER-15CW        
1 66758U 25276CW  25363.40939468  .00011086  00000+0  54546-3 0  9998
2 66758  97.4391  74.9046 0001748 131.5262 228.6122 15.18170381  4650
TRANSPORTER-15CX        
1 66759U 25276CX  25363.34120403  .00018097  00000+0  88324-3 0  9993
2 66759  97.4378  74.8370 0002140 129.0187 231.1238 15.18337265  4642
TRANSPORTER-15CY        
1 66760U 25276CY  25363.60460072  .00028943  00000+0  14099-2 0  9991
2 66760  97.4396  75.1042 0001682 119.8602 240.2799 15.18304981  4689
